H1 CPF 01  gfz 2021 01 30 13  5302 terrasarx 
H2 0702601  6201 31698    2021 01 30 12 59 42 2021 02 04 00 00 42   120 1 1  0 0 0
H9
10 0 59247  52542.000000  0     163840.222   1610065.302  -6702333.380
10 0 59247  52662.000000  0     756081.545   2271012.604  -6466081.515
10 0 59247  52782.000000  0    1346354.573   2882258.703  -6116980.504
10 0 59247  52902.000000  0    1923452.103   3433308.781  -5661049.062
10 0 59247  53022.000000  0    2476202.726   3914883.472  -5106164.525
10 0 59247  53142.000000  0    2993684.958   4319078.177  -4461938.383
10 0 59247  53262.000000  0    3465442.846   4639499.404  -3739560.852
10 0 59247  53382.000000  0    3881698.756   4871373.662  -2951615.513
10 0 59247  53502.000000  0    4233559.383   5011625.925  -2111865.608
10 0 59247  53622.000000  0    4513207.832   5058924.905  -1235015.850
10 0 59247  53742.000000  0    4714079.262   5013695.634   -336453.751
10 0 59247  53862.000000  0    4831013.764   4878094.882    568026.273
10 0 59247  53982.000000  0    4860380.825   4655951.492   1462507.166
10 0 59247  54102.000000  0    4800175.409   4352674.812   2331236.573
10 0 59247  54222.000000  0    4650082.341   3975130.394   3158914.075
10 0 59247  54342.000000  0    4411503.925   3531485.855   3930969.052
10 0 59247  54462.000000  0    4087552.156   3031032.336   4633821.850
10 0 59247  54582.000000  0    3683008.323   2483987.223   5255124.568
10 0 59247  54702.000000  0    3204246.688   1901280.997   5783978.527
10 0 59247  54822.000000  0    2659127.646   1294335.489   6211120.434
10 0 59247  54942.000000  0    2056863.892    674836.849   6529078.591
10 0 59247  55062.000000  0    1407861.036     54510.150   6732296.519
10 0 59247  55182.000000  0     723535.560   -555101.103   6817225.947
10 0 59247  55302.000000  0      16112.628  -1142850.144   6782385.484
10 0 59247  55422.000000  0    -701592.558  -1698190.373   6628384.139
10 0 59247  55542.000000  0   -1416406.579  -2211364.610   6357910.374
10 0 59247  55662.000000  0   -2115037.630  -2673576.093   5975686.742
10 0 59247  55782.000000  0   -2784320.792  -3077140.097   5488394.413
10 0 59247  55902.000000  0   -3411468.980  -3415615.866   4904564.604
10 0 59247  56022.000000  0   -3984322.328  -3683913.039   4234433.594
10 0 59247  56142.000000  0   -4491588.137  -3878370.863   3489766.683
10 0 59247  56262.000000  0   -4923068.338  -3996809.301   2683654.272
10 0 59247  56382.000000  0   -5269870.567  -4038551.333   1830282.218
10 0 59247  56502.000000  0   -5524596.585  -4004414.384    944677.949
10 0 59247  56622.000000  0   -5681502.385  -3896670.212     42439.456
10 0 59247  56742.000000  0   -5736626.508  -3718975.103   -860547.565
10 0 59247  56862.000000  0   -5687882.847  -3476271.741  -1748399.243
10 0 59247  56982.000000  0   -5535113.722  -3174664.096  -2605522.265
10 0 59247  57102.000000  0   -5280103.903  -2821270.665  -3416893.309
10 0 59247  57222.000000  0   -4926556.111  -2424059.817  -4168325.118
10 0 59247  57342.000000  0   -4480029.368  -1991671.496  -4846713.625
10 0 59247  57462.000000  0   -3947841.831  -1533230.277  -5440262.253
10 0 59247  57582.000000  0   -3338941.115  -1058153.337  -5938679.529
10 0 59247  57702.000000  0   -2663745.912   -575958.214  -6333346.954
10 0 59247  57822.000000  0   -1933962.535    -96074.635  -6617456.665
10 0 59247  57942.000000  0   -1162379.357    372335.870  -6786117.051
10 0 59247  58062.000000  0    -362645.160    820549.627  -6836427.045
10 0 59247  58182.000000  0     450967.060   1240439.225  -6767520.339
10 0 59247  58302.000000  0    1263807.480   1624616.174  -6580579.652
10 0 59247  58422.000000  0    2061108.033   1966558.868  -6278820.500
10 0 59247  58542.000000  0    2828245.701   2260722.367  -5867441.552
10 0 59247  58662.000000  0    3551007.313   2502628.211  -5353543.236
10 0 59247  58782.000000  0    4215850.996   2688933.335  -4746016.720
10 0 59247  58902.000000  0    4810163.173   2817477.629  -4055401.873
10 0 59247  59022.000000  0    5322503.619   2887307.711  -3293713.485
10 0 59247  59142.000000  0    5742832.580   2898676.660  -2474240.001
10 0 59247  59262.000000  0    6062718.042   2853020.177  -1611316.426
10 0 59247  59382.000000  0    6275513.966   2752906.815   -720072.658
10 0 59247  59502.000000  0    6376506.132   2601964.918    183835.045
10 0 59247  59622.000000  0    6363020.075   2404786.023   1084506.454
10 0 59247  59742.000000  0    6234488.660   2166808.703   1966083.539
10 0 59247  59862.000000  0    5992479.340   1894186.375   2813038.938
10 0 59247  59982.000000  0    5640676.385   1593639.692   3610458.252
10 0 59247  60102.000000  0    5184820.425   1272299.382   4344309.557
10 0 59247  60222.000000  0    4632606.096    937542.908   5001693.127
10 0 59247  60342.000000  0    3993544.172    596830.055   5571068.296
10 0 59247  60462.000000  0    3278787.778    257539.573   6042454.782
10 0 59247  60582.000000  0    2500928.348    -73187.253   6407601.403
10 0 59247  60702.000000  0    1673768.917   -388593.287   6660123.997
10 0 59247  60822.000000  0     812075.895   -682441.271   6795612.417
10 0 59247  60942.000000  0     -68687.425   -949135.906   6811702.897
10 0 59247  61062.000000  0    -952638.456  -1183829.448   6708115.636
10 0 59247  61182.000000  0   -1823760.747  -1382509.953   6486658.489
10 0 59247  61302.000000  0   -2666192.299  -1542069.477   6151196.403
10 0 59247  61422.000000  0   -3464512.990  -1660351.949   5707589.992
10 0 59247  61542.000000  0   -4204030.761  -1736181.739   5163600.964
10 0 59247  61662.000000  0   -4871057.659  -1769371.422   4528761.704
10 0 59247  61782.000000  0   -5453170.562  -1760707.429   3814212.414
10 0 59247  61902.000000  0   -5939450.146  -1711913.635   3032508.095
10 0 59247  62022.000000  0   -6320694.271  -1625594.588   2197399.870
10 0 59247  62142.000000  0   -6589603.018  -1505160.060   1323591.854
10 0 59247  62262.000000  0   -6740926.584  -1354731.122    426475.305
10 0 59247  62382.000000  0   -6771571.805  -1179030.077   -478150.356
10 0 59247  62502.000000  0   -6680665.497   -983257.555  -1374365.021
10 0 59247  62622.000000  0   -6469572.496   -772960.006  -2246416.749
10 0 59247  62742.000000  0   -6141869.358   -553891.655  -3079005.091
10 0 59247  62862.000000  0   -5703274.460   -331874.274  -3857554.955
10 0 59247  62982.000000  0   -5161535.429   -112656.543  -4568473.154
10 0 59247  63102.000000  0   -4526279.120     98221.801  -5199382.541
10 0 59247  63222.000000  0   -3808828.669    295557.828  -5739331.433
10 0 59247  63342.000000  0   -3021990.757    474602.396  -6178973.959
10 0 59247  63462.000000  0   -2179820.591    631164.364  -6510719.210
10 0 59247  63582.000000  0   -1297369.192    761699.959  -6728851.283
10 0 59247  63702.000000  0    -390415.462    863386.648  -6829617.443
10 0 59247  63822.000000  0     524810.238    934179.995  -6811284.111
10 0 59247  63942.000000  0    1431908.158    972852.273  -6674165.035
10 0 59247  64062.000000  0    2314597.400    979013.474  -6420618.283
10 0 59247  64182.000000  0    3157002.641    953113.987  -6055009.777
10 0 59247  64302.000000  0    3943935.699    896428.643  -5583644.838
10 0 59247  64422.000000  0    4661167.595    811021.949  -5014670.176
10 0 59247  64542.000000  0    5295689.136    699695.795  -4357944.961
10 0 59247  64662.000000  0    5835953.994    565920.069  -3624880.202
10 0 59247  64782.000000  0    6272098.115    413746.845  -2828249.111
10 0 59247  64902.000000  0    6596131.971    247710.503  -1981971.037
10 0 59247  65022.000000  0    6802100.699     72715.018  -1100869.754
10 0 59247  65142.000000  0    6886204.588   -106088.419   -200411.093
10 0 59247  65262.000000  0    6846878.424   -283430.283    703573.121
10 0 59247  65382.000000  0    6684827.303   -454055.990   1595171.053
10 0 59247  65502.000000  0    6403016.524   -612859.186   2458679.885
10 0 59247  65622.000000  0    6006614.905   -755011.917   3278892.140
10 0 59247  65742.000000  0    5502892.955   -876087.848   4041369.918
10 0 59247  65862.000000  0    4901082.354   -972175.912   4732703.407
10 0 59247  65982.000000  0    4212196.271  -1039982.072   5340748.966
10 0 59247  66102.000000  0    3448817.387  -1076914.641   5854840.677
10 0 59247  66222.000000  0    2624859.293  -1081153.530   6265973.495
10 0 59247  66342.000000  0    1755306.341  -1051701.756   6566955.164
10 0 59247  66462.000000  0     855936.852   -988418.350   6752527.109
10 0 59247  66582.000000  0     -56966.566   -892031.177   6819450.551
10 0 59247  66702.000000  0    -966911.988   -764130.191   6766558.079
10 0 59247  66822.000000  0   -1857494.655   -607141.416   6594772.129
10 0 59247  66942.000000  0   -2712691.066   -424281.305   6307089.769
10 0 59247  67062.000000  0   -3517146.648   -219492.622   5908534.851
10 0 59247  67182.000000  0   -4256453.941      2637.242   5406076.600
10 0 59247  67302.000000  0   -4917416.028    236974.236   4808513.952
10 0 59247  67422.000000  0   -5488289.492    477949.724   4126326.801
10 0 59247  67542.000000  0   -5959001.890    719685.331   3371495.699
10 0 59247  67662.000000  0   -6321338.760    956127.631   2557293.731
10 0 59247  67782.000000  0   -6569096.947   1181189.792   1698052.179
10 0 59247  67902.000000  0   -6698199.448   1388896.270    808904.471
10 0 59247  68022.000000  0   -6706768.696   1573527.650    -94487.655
10 0 59247  68142.000000  0   -6595154.256   1729761.422   -996219.271
10 0 59247  68262.000000  0   -6365915.258   1852804.481  -1880430.930
10 0 59247  68382.000000  0   -6023759.682   1938515.279  -2731595.242
10 0 59247  68502.000000  0   -5575440.249   1983512.253  -3534796.731
10 0 59247  68622.000000  0   -5029609.707   1985264.533  -4275996.425
10 0 59247  68742.000000  0   -4396641.612   1942163.767  -4942275.584
10 0 59247  68862.000000  0   -3688421.670   1853575.886  -5522055.066
10 0 59247  68982.000000  0   -2918115.996   1719872.267  -6005287.231
99
